STARLINK-30503          
1 57975U 23151M   26068.17538174 -.00014007  00000+0 -50010-3 0  9995
2 57975  43.0027 339.2227 0002061 264.9376  95.1241 15.27599044135686
LIME                    
1 62648U 25009AR  26068.73906781  .00013254  00000+0  47723-3 0  9995
2 62648  97.3985 151.4831 0001635  35.9029 324.2320 15.28703313 63766
